0 FENGYUN 1C DEB
1 29906U 99025HC  13281.03939543  .00001969  00000-0  98389-3 0  1742
2 29906 098.9493 293.3936 0058260 107.2234 268.3355 14.17086837347444
0 FENGYUN 1C DEB
1 29906U 99025HC  13283.53953887  .00002615  00000-0  12989-2 0  1757
2 29906 098.9494 295.9092 0058187 100.1727 062.8361 14.17100343347794
0 FENGYUN 1C DEB
1 29906U 99025HC  13285.85426227  .00002483  00000-0  12344-2 0  1766
2 29906 098.9489 298.2389 0058088 093.7234 351.4352 14.17110307348129
0 FENGYUN 1C DEB
1 29906U 99025HC  13288.61574014  .00003010  00000-0  14911-2 0  1771
2 29906 098.9479 301.0181 0057971 085.9958 039.3215 14.17127123348514
0 FENGYUN 1C DEB
1 29906U 99025HC  13290.71979858  .00003417  00000-0  16896-2 0  1786
2 29906 098.9475 303.1356 0057873 080.0687 333.4856 14.17137990348818
0 FENGYUN 1C DEB
1 29906U 99025HC  13292.85145954  .00003052  00000-0  15113-2 0  1792
2 29906 098.9477 305.2803 0057797 074.0742 048.5454 14.17150264349111
0 FENGYUN 1C DEB
1 29906U 99025HC  13295.02664581  .00003554  00000-0  17561-2 0  1804
2 29906 098.9481 307.4689 0057696 067.9553 345.7616 14.17160736349422
